{"type": "FeatureCollection", "features": [ {"type": "Feature", "properties": {"norad_id": 41774, "name": "SKYSAT-C3", "group": "resource", "lat": 55.37684257866902, "lon": -150.67013718066062, "alt_km": 427.14301672293914, "timestamp": "2025-12-11T08:58:26.771656+00:00", "meta": {"OBJECT_NAME": "SKYSAT-C3", "OBJECT_ID": "2016-058E", "EPOCH": "2025-12-11T02:13:07.879584", "MEAN_MOTION": 15.44300229, "ECCENTRICITY": 0.0001616, "INCLINATION": 96.9302, "RA_OF_ASC_NODE": 18.9149, "ARG_OF_PERICENTER": 106.2091, "MEAN_ANOMALY": 253.9336, "EPHEMERIS_TYPE": 0, "CLASSIFICATION_TYPE": "U", "NORAD_CAT_ID": 41774, "ELEMENT_SET_NO": 999, "REV_AT_EPOCH": 51700, "BSTAR": 0.00056526, "MEAN_MOTION_DOT": 0.00025995, "MEAN_MOTION_DDOT": 0}, "tle": {"line1": "1 41774U 16058E   25345.09245231  .00025995  00000+0  56526-3 0  9994", "line2": "2 41774  96.9302  18.9149 0001616 106.2091 253.9336 15.44300229517003"}}, "geometry": {"type": "Point", "coordinates": [-150.67013718066062, 55.37684257866902]}}, {"type": "Feature", "properties": {"norad_id": 41785, "name": "ALSAT 1B", "group": "resource", "lat": -22.768518175180184, "lon": 0.5125129869784135, "alt_km": 664.6922929225602, "timestamp": "2025-12-11T08:58:26.771667+00:00", "meta": {"OBJECT_NAME": "ALSAT 1B", "OBJECT_ID": "2016-059C", "EPOCH": "2025-12-11T04:11:03.796800", "MEAN_MOTION": 14.72072318, "ECCENTRICITY": 0.001066, "INCLINATION": 97.7815, "RA_OF_ASC_NODE": 357.0313, "ARG_OF_PERICENTER": 107.5236, "MEAN_ANOMALY": 252.7138, "EPHEMERIS_TYPE": 0, "CLASSIFICATION_TYPE": "U", "NORAD_CAT_ID": 41785, "ELEMENT_SET_NO": 999, "REV_AT_EPOCH": 49291, "BSTAR": 0.0001043, "MEAN_MOTION_DOT": 6.09e-06, "MEAN_MOTION_DDOT": 0}, "tle": {"line1": "1 41785U 16059C   25345.17434950  .00000609  00000+0  10430-3 0  9993", "line2": "2 41785  97.7815 357.0313 0010660 107.5236 252.7138 14.72072318492911"}}, "geometry": {"type": "Point", "coordinates": [0.5125129869784135, -22.768518175180184]}}, {"type": "Feature", "properties": {"norad_id": 41787, "name": "PATHFINDER 1", "group": "resource", "lat": 76.60539279874807, "lon": -47.00480717172652, "alt_km": 641.3599878555824, "timestamp": "2025-12-11T08:58:26.771677+00:00", "meta": {"OBJECT_NAME": "PATHFINDER 1", "OBJECT_ID": "2016-059E", "EPOCH": "2025-12-11T00:25:59.733408", "MEAN_MOTION": 14.67315928, "ECCENTRICITY": 0.0030054, "INCLINATION": 97.8139, "RA_OF_ASC_NODE": 347.8715, "ARG_OF_PERICENTER": 86.425, "MEAN_ANOMALY": 274.0391, "EPHEMERIS_TYPE": 0, "CLASSIFICATION_TYPE": "U", "NORAD_CAT_ID": 41787, "ELEMENT_SET_NO": 999, "REV_AT_EPOCH": 49211, "BSTAR": 0.00022273, "MEAN_MOTION_DOT": 1.219e-05, "MEAN_MOTION_DDOT": 0}, "tle": {"line1": "1 41787U 16059E   25345.01805247  .00001219  00000+0  22273-3 0  9995", "line2": "2 41787  97.8139 347.8715 0030054  86.4250 274.0391 14.67315928492117"}}, "geometry": {"type": "Point", "coordinates": [-47.00480717172652, 76.60539279874807]}}, {"type": "Feature", "properties": {"norad_id": 41790, "name": "SCATSAT 1", "group": "resource", "lat": 13.840066404211749, "lon": 40.00457315019278, "alt_km": 652.2046850209899, "timestamp": "2025-12-11T08:58:26.771687+00:00", "meta": {"OBJECT_NAME": "SCATSAT 1", "OBJECT_ID": "2016-059H", "EPOCH": "2025-12-11T04:02:21.458688", "MEAN_MOTION": 14.78927983, "ECCENTRICITY": 0.0056204, "INCLINATION": 98.1464, "RA_OF_ASC_NODE": 41.8188, "ARG_OF_PERICENTER": 132.9642, "MEAN_ANOMALY": 227.6302, "EPHEMERIS_TYPE": 0, "CLASSIFICATION_TYPE": "U", "NORAD_CAT_ID": 41790, "ELEMENT_SET_NO": 999, "REV_AT_EPOCH": 7379, "BSTAR": 0.00034488, "MEAN_MOTION_DOT": 2.555e-05, "MEAN_MOTION_DDOT": 0}, "tle": {"line1": "1 41790U 16059H   25345.16830392  .00002555  00000+0  34488-3 0  9999", "line2": "2 41790  98.1464  41.8188 0056204 132.9642 227.6302 14.78927983 73795"}}, "geometry": {"type": "Point", "coordinates": [40.00457315019278, 13.840066404211749]}}, {"type": "Feature", "properties": {"norad_id": 41875, "name": "GOKTURK 1A", "group": "resource", "lat": 1.2649840063455258, "lon": 57.93831746451601, "alt_km": 687.2094283508577, "timestamp": "2025-12-11T08:58:26.771697+00:00", "meta": {"OBJECT_NAME": "GOKTURK 1A", "OBJECT_ID": "2016-073A", "EPOCH": "2025-12-11T04:52:36.919776", "MEAN_MOTION": 14.62777045, "ECCENTRICITY": 0.0001252, "INCLINATION": 98.1424, "RA_OF_ASC_NODE": 237.5888, "ARG_OF_PERICENTER": 78.3668, "MEAN_ANOMALY": 281.7674, "EPHEMERIS_TYPE": 0, "CLASSIFICATION_TYPE": "U", "NORAD_CAT_ID": 41875, "ELEMENT_SET_NO": 999, "REV_AT_EPOCH": 48134, "BSTAR": 0.00019413, "MEAN_MOTION_DOT": 9.43e-06, "MEAN_MOTION_DDOT": 0}, "tle": {"line1": "1 41875U 16073A   25345.20320509  .00000943  00000+0  19413-3 0  9998", "line2": "2 41875  98.1424 237.5888 0001252  78.3668 281.7674 14.62777045481342"}}, "geometry": {"type": "Point", "coordinates": [57.93831746451601, 1.2649840063455258]}}, {"type": "Feature", "properties": {"norad_id": 41877, "name": "RESOURCESAT-2A", "group": "resource", "lat": 67.84169943956628, "lon": 32.94724214457595, "alt_km": 814.1139264087187, "timestamp": "2025-12-11T08:58:26.771708+00:00", "meta": {"OBJECT_NAME": "RESOURCESAT-2A", "OBJECT_ID": "2016-074A", "EPOCH": "2025-12-11T05:16:10.524000", "MEAN_MOTION": 14.21597827, "ECCENTRICITY": 0.000113, "INCLINATION": 98.7753, "RA_OF_ASC_NODE": 55.0838, "ARG_OF_PERICENTER": 262.6496, "MEAN_ANOMALY": 97.4553, "EPHEMERIS_TYPE": 0, "CLASSIFICATION_TYPE": "U", "NORAD_CAT_ID": 41877, "ELEMENT_SET_NO": 999, "REV_AT_EPOCH": 46759, "BSTAR": 1.9333e-05, "MEAN_MOTION_DOT": -2e-08, "MEAN_MOTION_DDOT": 0}, "tle": {"line1": "1 41877U 16074A   25345.21956625 -.00000002  00000+0  19333-4 0  9995", "line2": "2 41877  98.7753  55.0838 0001130 262.6496  97.4553 14.21597827467597"}}, "geometry": {"type": "Point", "coordinates": [32.94724214457595, 67.84169943956628]}}, {"type": "Feature", "properties": {"norad_id": 41948, "name": "CARTOSAT-2D", "group": "resource", "lat": -42.98694704264608, "lon": 49.88592958163619, "alt_km": 517.5169236893753, "timestamp": "2025-12-11T08:58:26.771718+00:00", "meta": {"OBJECT_NAME": "CARTOSAT-2D", "OBJECT_ID": "2017-008A", "EPOCH": "2025-12-11T04:25:22.387296", "MEAN_MOTION": 15.19232405, "ECCENTRICITY": 0.0004507, "INCLINATION": 97.4383, "RA_OF_ASC_NODE": 42.7046, "ARG_OF_PERICENTER": 168.3002, "MEAN_ANOMALY": 191.8338, "EPHEMERIS_TYPE": 0, "CLASSIFICATION_TYPE": "U", "NORAD_CAT_ID": 41948, "ELEMENT_SET_NO": 999, "REV_AT_EPOCH": 48903, "BSTAR": 0.00041795, "MEAN_MOTION_DOT": 8.742e-05, "MEAN_MOTION_DDOT": 0}, "tle": {"line1": "1 41948U 17008A   25345.18428689  .00008742  00000+0  41795-3 0  9996", "line2": "2 41948  97.4383  42.7046 0004507 168.3002 191.8338 15.19232405489030"}}, "geometry": {"type": "Point", "coordinates": [49.88592958163619, -42.98694704264608]}}, {"type": "Feature", "properties": {"norad_id": 42063, "name": "SENTINEL-2B", "group": "resource", "lat": -7.100038460410398, "lon": 58.91482946699463, "alt_km": 792.9667395824281, "timestamp": "2025-12-11T08:58:26.771729+00:00", "meta": {"OBJECT_NAME": "SENTINEL-2B", "OBJECT_ID": "2017-013A", "EPOCH": "2025-12-11T03:58:21.374688", "MEAN_MOTION": 14.30815043, "ECCENTRICITY": 0.0001137, "INCLINATION": 98.5712, "RA_OF_ASC_NODE": 57.633, "ARG_OF_PERICENTER": 94.0003, "MEAN_ANOMALY": 266.131, "EPHEMERIS_TYPE": 0, "CLASSIFICATION_TYPE": "U", "NORAD_CAT_ID": 42063, "ELEMENT_SET_NO": 999, "REV_AT_EPOCH": 45775, "BSTAR": 9.3405e-05, "MEAN_MOTION_DOT": 2.01e-06, "MEAN_MOTION_DDOT": 0}, "tle": {"line1": "1 42063U 17013A   25345.16552517  .00000201  00000+0  93405-4 0  9995", "line2": "2 42063  98.5712  57.6330 0001137  94.0003 266.1310 14.30815043457757"}}, "geometry": {"type": "Point", "coordinates": [58.91482946699463, -7.100038460410398]}}, {"type": "Feature", "properties": {"norad_id": 42767, "name": "CARTOSAT-2E", "group": "resource", "lat": -47.29104097008778, "lon": -145.17754190172414, "alt_km": 513.2208413458402, "timestamp": "2025-12-11T08:58:26.771739+00:00", "meta": {"OBJECT_NAME": "CARTOSAT-2E", "OBJECT_ID": "2017-036C", "EPOCH": "2025-12-11T04:48:47.515680", "MEAN_MOTION": 15.19294702, "ECCENTRICITY": 0.0002406, "INCLINATION": 97.4553, "RA_OF_ASC_NODE": 42.8071, "ARG_OF_PERICENTER": 242.5315, "MEAN_ANOMALY": 117.5675, "EPHEMERIS_TYPE": 0, "CLASSIFICATION_TYPE": "U", "NORAD_CAT_ID": 42767, "ELEMENT_SET_NO": 999, "REV_AT_EPOCH": 46960, "BSTAR": 0.0003018, "MEAN_MOTION_DOT": 6.302e-05, "MEAN_MOTION_DDOT": 0}, "tle": {"line1": "1 42767U 17036C   25345.20054995  .00006302  00000+0  30180-3 0  9991", "line2": "2 42767  97.4553  42.8071 0002406 242.5315 117.5675 15.19294702469604"}}, "geometry": {"type": "Point", "coordinates": [-145.17754190172414, -47.29104097008778]}}, {"type": "Feature", "properties": {"norad_id": 42920, "name": "FORMOSAT-5", "group": "resource", "lat": -73.69882065317968, "lon": -150.00543810779058, "alt_km": 724.623376198344, "timestamp": "2025-12-11T08:58:26.771750+00:00", "meta": {"OBJECT_NAME": "FORMOSAT-5", "OBJECT_ID": "2017-049A", "EPOCH": "2025-12-11T04:29:15.332064", "MEAN_MOTION": 14.51003887, "ECCENTRICITY": 0.0009945, "INCLINATION": 98.2454, "RA_OF_ASC_NODE": 59.5368, "ARG_OF_PERICENTER": 300.8229, "MEAN_ANOMALY": 59.1987, "EPHEMERIS_TYPE": 0, "CLASSIFICATION_TYPE": "U", "NORAD_CAT_ID": 42920, "ELEMENT_SET_NO": 999, "REV_AT_EPOCH": 43941, "BSTAR": 0.00010712, "MEAN_MOTION_DOT": 3.8e-06, "MEAN_MOTION_DDOT": 0}, "tle": {"line1": "1 42920U 17049A   25345.18698301  .00000380  00000+0  10712-3 0  9997", "line2": "2 42920  98.2454  59.5368 0009945 300.8229  59.1987 14.51003887439415"}}, "geometry": {"type": "Point", "coordinates": [-150.00543810779058, -73.69882065317968]}}]}